[{"OBJECT_NAME":"SCS-01 D","OBJECT_ID":"2025-100D","EPOCH":"2026-03-09T18:08:45.040704","MEAN_MOTION":15.31902149,"ECCENTRICITY":0.00063457,"INCLINATION":97.373,"RA_OF_ASC_NODE":145.4097,"ARG_OF_PERICENTER":266.2302,"MEAN_ANOMALY":93.8214,"EPHEMERIS_TYPE":0,"CLASSIFICATION_TYPE":"U","NORAD_CAT_ID":63985,"ELEMENT_SET_NO":999,"REV_AT_EPOCH":4562,"BSTAR":0.0010528181,"MEAN_MOTION_DOT":0.00032471,"MEAN_MOTION_DDOT":0},{"OBJECT_NAME":"STARLINK-34936","OBJECT_ID":"2025-224S","EPOCH":"2026-03-09T05:17:00.344832","MEAN_MOTION":15.3018483,"ECCENTRICITY":0.0001186,"INCLINATION":53.161,"RA_OF_ASC_NODE":13.4363,"ARG_OF_PERICENTER":75.2552,"MEAN_ANOMALY":284.858,"EPHEMERIS_TYPE":0,"CLASSIFICATION_TYPE":"U","NORAD_CAT_ID":65898,"ELEMENT_SET_NO":999,"REV_AT_EPOCH":2480,"BSTAR":0.00079360732,"MEAN_MOTION_DOT":0.00023208,"MEAN_MOTION_DDOT":0}]
